start=new Date('2021-10-16T00:00:00.000Z').valueOf();
sats=[{"SEMIMAJOR_AXIS":"6925.403","OBJECT_TYPE":"PAYLOAD","DECAY_DATE":null,"TLE_LINE1":"1 47878U 21021U   21288.69836486  .00000048  00000-0  22159-4 0  9996","OBJECT_NAME":"STARLINK-2335","REF_FRAME":"TEME","COUNTRY_CODE":"US","INCLINATION":"53.0561","MEAN_MOTION_DDOT":"0.0000000000000","ARG_OF_PERICENTER":"73.9629","TIME_SYSTEM":"UTC","RA_OF_ASC_NODE":"281.1899","PERIOD":"95.593","LAUNCH_DATE":"2021-03-14","GP_ID":"187279854","MEAN_ELEMENT_THEORY":"SGP4","MEAN_MOTION_DOT":"0.00000048","REV_AT_EPOCH":"3392","CENTER_NAME":"EARTH","MEAN_MOTION":"15.06382277","RCS_SIZE":"LARGE","TLE_LINE2":"2 47878  53.0561 281.1899 0001454  73.9629 286.1520 15.06382277 33926","CLASSIFICATION_TYPE":"U","OBJECT_ID":"2021-021U","ECCENTRICITY":"0.00014540","MEAN_ANOMALY":"286.1520","NORAD_CAT_ID":"47878","PERIAPSIS":"546.261","ELEMENT_SET_NO":"999","BSTAR":"0.00002215900000","APOAPSIS":"548.275","EPHEMERIS_TYPE":"0","FILE":"3165217","SITE":"AFETR","EPOCH":"2021-10-15T16:45:38.723904"},{"LAUNCH_DATE":"2021-03-14","PERIOD":"95.593","RA_OF_ASC_NODE":"295.9166","ARG_OF_PERICENTER":"82.0177","TIME_SYSTEM":"UTC","MEAN_MOTION_DDOT":"0.0000000000000","INCLINATION":"53.0563","COUNTRY_CODE":"US","TLE_LINE1":"1 47879U 21021V   21288.76148508  .00000368  00000-0  43595-4 0  9998","DECAY_DATE":null,"OBJECT_NAME":"STARLINK-2336","REF_FRAME":"TEME","OBJECT_TYPE":"PAYLOAD","SEMIMAJOR_AXIS":"6925.397","EPOCH":"2021-10-15T18:16:32.310912","FILE":"3165217","SITE":"AFETR","APOAPSIS":"548.100","EPHEMERIS_TYPE":"0","PERIAPSIS":"546.424","ELEMENT_SET_NO":"999","NORAD_CAT_ID":"47879","BSTAR":"0.00004359500000","ECCENTRICITY":"0.00012100","MEAN_ANOMALY":"278.0950","OBJECT_ID":"2021-021V","RCS_SIZE":"LARGE","TLE_LINE2":"2 47879  53.0563 295.9166 0001210  82.0177 278.0950 15.06384167 34106","CLASSIFICATION_TYPE":"U","CENTER_NAME":"EARTH","MEAN_MOTION":"15.06384167","REV_AT_EPOCH":"3410","MEAN_MOTION_DOT":"0.00000368","MEAN_ELEMENT_THEORY":"SGP4","GP_ID":"187279605"},{"COUNTRY_CODE":"US","TLE_LINE1":"1 47880U 21021W   21288.73703564 -.00000039  00000-0  16287-4 0  9990","DECAY_DATE":null,"OBJECT_NAME":"STARLINK-2337","REF_FRAME":"TEME","OBJECT_TYPE":"PAYLOAD","SEMIMAJOR_AXIS":"6925.370","RA_OF_ASC_NODE":"291.0053","ARG_OF_PERICENTER":"78.7325","TIME_SYSTEM":"UTC","MEAN_MOTION_DDOT":"0.0000000000000","INCLINATION":"53.0543","PERIOD":"95.593","LAUNCH_DATE":"2021-03-14","GP_ID":"187280856","REV_AT_EPOCH":"3399","MEAN_MOTION_DOT":"-0.00000039","MEAN_ELEMENT_THEORY":"SGP4","ECCENTRICITY":"0.00014160","MEAN_ANOMALY":"281.3823","OBJECT_ID":"2021-021W","RCS_SIZE":"LARGE","TLE_LINE2":"2 47880  53.0543 291.0053 0001416  78.7325 281.3823 15.06392897 33994","CLASSIFICATION_TYPE":"U","CENTER_NAME":"EARTH","MEAN_MOTION":"15.06392897","EPOCH":"2021-10-15T17:41:19.879296","FILE":"3165217","SITE":"AFETR","APOAPSIS":"548.216","EPHEMERIS_TYPE":"0","ELEMENT_SET_NO":"999","PERIAPSIS":"546.255","NORAD_CAT_ID":"47880","BSTAR":"0.00001628700000"},{"ARG_OF_PERICENTER":"49.1194","TIME_SYSTEM":"UTC","RA_OF_ASC_NODE":"291.9934","MEAN_MOTION_DDOT":"0.0000000000000","INCLINATION":"53.0561","TLE_LINE1":"1 47881U 21021X   21288.49471328 -.00002072  00000-0 -12025-3 0  9999","OBJECT_NAME":"STARLINK-2339","DECAY_DATE":null,"REF_FRAME":"TEME","COUNTRY_CODE":"US","SEMIMAJOR_AXIS":"6925.397","OBJECT_TYPE":"PAYLOAD","LAUNCH_DATE":"2021-03-14","PERIOD":"95.593","REV_AT_EPOCH":"3392","MEAN_ELEMENT_THEORY":"SGP4","MEAN_MOTION_DOT":"-0.00002072","GP_ID":"187280607","FILE":"3165217","SITE":"AFETR","EPOCH":"2021-10-15T11:52:23.227392","PERIAPSIS":"545.872","NORAD_CAT_ID":"47881","ELEMENT_SET_NO":"999","BSTAR":"-0.00012025000000","APOAPSIS":"548.652","EPHEMERIS_TYPE":"0","OBJECT_ID":"2021-021X","MEAN_ANOMALY":"310.9969","ECCENTRICITY":"0.00020070","CENTER_NAME":"EARTH","MEAN_MOTION":"15.06384269","RCS_SIZE":"LARGE","TLE_LINE2":"2 47881  53.0561 291.9934 0002007  49.1194 310.9969 15.06384269 33922","CLASSIFICATION_TYPE":"U"},{"GP_ID":"187279355","REV_AT_EPOCH":"3426","MEAN_ELEMENT_THEORY":"SGP4","MEAN_MOTION_DOT":"-0.00001872","OBJECT_ID":"2021-021Y","ECCENTRICITY":"0.00013160","MEAN_ANOMALY":"271.8956","CENTER_NAME":"EARTH","MEAN_MOTION":"15.06385155","RCS_SIZE":"LARGE","CLASSIFICATION_TYPE":"U","TLE_LINE2":"2 47882  53.0550 282.2060 0001316  88.2184 271.8956 15.06385155 34263","FILE":"3165217","SITE":"AFETR","EPOCH":"2021-10-15T11:16:33.467520","PERIAPSIS":"546.348","NORAD_CAT_ID":"47882","ELEMENT_SET_NO":"999","BSTAR":"-0.00010686000000","APOAPSIS":"548.170","EPHEMERIS_TYPE":"0","DECAY_DATE":null,"TLE_LINE1":"1 47882U 21021Y   21288.46983180 -.00001872  00000-0 -10686-3 0  9999","OBJECT_NAME":"STARLINK-2340","REF_FRAME":"TEME","COUNTRY_CODE":"US","SEMIMAJOR_AXIS":"6925.394","OBJECT_TYPE":"PAYLOAD","ARG_OF_PERICENTER":"88.2184","TIME_SYSTEM":"UTC","RA_OF_ASC_NODE":"282.2060","MEAN_MOTION_DDOT":"0.0000000000000","INCLINATION":"53.0550","PERIOD":"95.593","LAUNCH_DATE":"2021-03-14"},{"GP_ID":"187280105","REV_AT_EPOCH":"3423","MEAN_MOTION_DOT":"-0.00001087","MEAN_ELEMENT_THEORY":"SGP4","MEAN_ANOMALY":"286.2379","ECCENTRICITY":"0.00012200","OBJECT_ID":"2021-021Z","TLE_LINE2":"2 47883  53.0579 286.1508 0001220  73.8744 286.2379 15.06383600 34230","CLASSIFICATION_TYPE":"U","RCS_SIZE":"LARGE","MEAN_MOTION":"15.06383600","CENTER_NAME":"EARTH","EPOCH":"2021-10-15T16:58:14.991744","SITE":"AFETR","FILE":"3165217","EPHEMERIS_TYPE":"0","APOAPSIS":"548.109","BSTAR":"-0.00005411600000","PERIAPSIS":"546.419","NORAD_CAT_ID":"47883","ELEMENT_SET_NO":"999","COUNTRY_CODE":"US","REF_FRAME":"TEME","OBJECT_NAME":"STARLINK-2342","TLE_LINE1":"1 47883U 21021Z   21288.70711796 -.00001087  00000-0 -54116-4 0  9994","DECAY_DATE":null,"OBJECT_TYPE":"PAYLOAD","SEMIMAJOR_AXIS":"6925.399","RA_OF_ASC_NODE":"286.1508","TIME_SYSTEM":"UTC","ARG_OF_PERICENTER":"73.8744","INCLINATION":"53.0579","MEAN_MOTION_DDOT":"0.0000000000000","PERIOD":"95.593","LAUNCH_DATE":"2021-03-14"},{"PERIOD":"95.592","LAUNCH_DATE":"2021-03-14","DECAY_DATE":null,"TLE_LINE1":"1 47884U 21021AA  21288.29198006 -.00002097  00000-0 -12196-3 0  9995","OBJECT_NAME":"STARLINK-2343","REF_FRAME":"TEME","COUNTRY_CODE":"US","SEMIMAJOR_AXIS":"6925.363","OBJECT_TYPE":"PAYLOAD","ARG_OF_PERICENTER":"68.4798","TIME_SYSTEM":"UTC","RA_OF_ASC_NODE":"293.0143","MEAN_MOTION_DDOT":"0.0000000000000","INCLINATION":"53.0518","OBJECT_ID":"2021-021AA","ECCENTRICITY":"0.00016270","MEAN_ANOMALY":"291.6365","CENTER_NAME":"EARTH","MEAN_MOTION":"15.06395179","RCS_SIZE":"LARGE","TLE_LINE2":"2 47884  53.0518 293.0143 0001627  68.4798 291.6365 15.06395179 33920","CLASSIFICATION_TYPE":"U","FILE":"3164360","SITE":"AFETR","EPOCH":"2021-10-15T07:00:27.077184","PERIAPSIS":"546.102","NORAD_CAT_ID":"47884","ELEMENT_SET_NO":"999","BSTAR":"-0.00012196000000","APOAPSIS":"548.355","EPHEMERIS_TYPE":"0","GP_ID":"187239159","REV_AT_EPOCH":"3392","MEAN_ELEMENT_THEORY":"SGP4","MEAN_MOTION_DOT":"-0.00002097"},{"GP_ID":"187281107","MEAN_ELEMENT_THEORY":"SGP4","MEAN_MOTION_DOT":"-0.00000422","REV_AT_EPOCH":"3408","MEAN_MOTION":"15.06390605","CENTER_NAME":"EARTH","TLE_LINE2":"2 47885  53.0551 295.9490 0001692  73.4155 286.7020 15.06390605 34089","CLASSIFICATION_TYPE":"U","RCS_SIZE":"LARGE","OBJECT_ID":"2021-021AB","ECCENTRICITY":"0.00016920","MEAN_ANOMALY":"286.7020","BSTAR":"-0.00000945580000","NORAD_CAT_ID":"47885","PERIAPSIS":"546.071","ELEMENT_SET_NO":"999","EPHEMERIS_TYPE":"0","APOAPSIS":"548.414","SITE":"AFETR","FILE":"3165217","EPOCH":"2021-10-15T18:00:36.453888","SEMIMAJOR_AXIS":"6925.377","OBJECT_TYPE":"PAYLOAD","REF_FRAME":"TEME","TLE_LINE1":"1 47885U 21021AB  21288.75042192 -.00000422  00000-0 -94558-5 0  9995","OBJECT_NAME":"STARLINK-2344","DECAY_DATE":null,"COUNTRY_CODE":"US","INCLINATION":"53.0551","MEAN_MOTION_DDOT":"0.0000000000000","TIME_SYSTEM":"UTC","ARG_OF_PERICENTER":"73.4155","RA_OF_ASC_NODE":"295.9490","PERIOD":"95.593","LAUNCH_DATE":"2021-03-14"},{"INCLINATION":"53.0554","MEAN_MOTION_DDOT":"0.0000000000000","RA_OF_ASC_NODE":"287.1442","TIME_SYSTEM":"UTC","ARG_OF_PERICENTER":"75.4414","OBJECT_TYPE":"PAYLOAD","SEMIMAJOR_AXIS":"6925.386","COUNTRY_CODE":"US","REF_FRAME":"TEME","DECAY_DATE":null,"TLE_LINE1":"1 47886U 21021AC  21288.48500951 -.00001611  00000-0 -89288-4 0  9992","OBJECT_NAME":"STARLINK-2345","LAUNCH_DATE":"2021-03-14","PERIOD":"95.593","MEAN_MOTION_DOT":"-0.00001611","MEAN_ELEMENT_THEORY":"SGP4","REV_AT_EPOCH":"3403","GP_ID":"187279855","EPHEMERIS_TYPE":"0","APOAPSIS":"548.297","BSTAR":"-0.00008928800000","PERIAPSIS":"546.205","NORAD_CAT_ID":"47886","ELEMENT_SET_NO":"999","EPOCH":"2021-10-15T11:38:24.821664","SITE":"AFETR","FILE":"3165217","TLE_LINE2":"2 47886  53.0554 287.1442 0001510  75.4414 284.6743 15.06387841 34034","CLASSIFICATION_TYPE":"U","RCS_SIZE":"LARGE","MEAN_MOTION":"15.06387841","CENTER_NAME":"EARTH","MEAN_ANOMALY":"284.6743","ECCENTRICITY":"0.00015100","OBJECT_ID":"2021-021AC"},{"PERIOD":"95.592","LAUNCH_DATE":"2021-03-14","OBJECT_TYPE":"PAYLOAD","SEMIMAJOR_AXIS":"6925.349","COUNTRY_CODE":"US","REF_FRAME":"TEME","DECAY_DATE":null,"TLE_LINE1":"1 47887U 21021AD  21288.70848153 -.00000069  00000-0  14246-4 0  9994","OBJECT_NAME":"STARLINK-2346","MEAN_MOTION_DDOT":"0.0000000000000","INCLINATION":"53.0571","RA_OF_ASC_NODE":"291.1479","TIME_SYSTEM":"UTC","ARG_OF_PERICENTER":"74.5855","TLE_LINE2":"2 47887  53.0571 291.1479 0001396  74.5855 285.5288 15.06399862 33994","CLASSIFICATION_TYPE":"U","RCS_SIZE":"LARGE","MEAN_MOTION":"15.06399862","CENTER_NAME":"EARTH","ECCENTRICITY":"0.00013960","MEAN_ANOMALY":"285.5288","OBJECT_ID":"2021-021AD","EPHEMERIS_TYPE":"0","APOAPSIS":"548.181","BSTAR":"0.00001424600000","PERIAPSIS":"546.247","ELEMENT_SET_NO":"999","NORAD_CAT_ID":"47887","EPOCH":"2021-10-15T17:00:12.804192","SITE":"AFETR","FILE":"3165217","GP_ID":"187279606","MEAN_MOTION_DOT":"-0.00000069","MEAN_ELEMENT_THEORY":"SGP4","REV_AT_EPOCH":"3399"}];
